ONEWEB-0637             
1 56078U 23043AJ  25265.17992969  .00000015  00000+0  53557-5 0  9995
2 56078  87.9011 312.7057 0002191  91.8879 268.2502 13.15548890121197
ONEWEB-0647             
1 56079U 23043AK  25265.17515221 -.00000041  00000+0 -14301-3 0  9991
2 56079  87.9014 312.7197 0001704  93.1748 266.9577 13.15549667121184
ONEWEB-0651             
1 56080U 23043AL  25265.17041876 -.00000069  00000+0 -21665-3 0  9994
2 56080  87.9015 312.7124 0002003  89.0583 271.0777 13.15548431122381
ONEWEB-0718             
1 56081U 23043AM  25265.16565525 -.00000097  00000+0 -29055-3 0  9998
2 56081  87.9016 312.6942 0002305 108.2233 251.9149 13.15549996121196
ONEWEB-0561             
1 56710U 23068A   25265.24600747  .00000066  00000+0  13076-3 0  9999
2 56710  87.9255 327.8794 0001648  82.9043 277.2278 13.20771682114134
ONEWEB-0668             
1 56711U 23068B   25265.11137439  .00000175  00000+0  42471-3 0  9991
2 56711  87.8978 282.1846 0002340  98.9107 261.2289 13.16593017116502
ONEWEB-0676             
1 56712U 23068C   25265.24355025  .00000032  00000+0  50965-4 0  9999
2 56712  87.8971 282.1765 0001802  81.6701 278.4634 13.16594757116446
ONEWEB-0677             
1 56713U 23068D   25265.23495448  .00000011  00000+0 -42489-5 0  9994
2 56713  87.9259 327.8584 0002012  90.8203 269.3161 13.20772063114430
ONEWEB-0678             
1 56714U 23068E   25265.21001525  .00000111  00000+0  26040-3 0  9995
2 56714  87.9018 312.6585 0001488  96.7951 263.3349 13.15549837114053
ONEWEB-0679             
1 56715U 23068F   25265.28869306  .00000041  00000+0  74059-4 0  9998
2 56715  87.8974 282.1599 0002353  85.1778 274.9622 13.16595222116471
ONEWEB-0680             
1 56716U 23068G   25265.13200864  .00000051  00000+0  91128-4 0  9998
2 56716  87.9190 297.4534 0002508  97.6097 262.5322 13.21825898115688
ONEWEB-0681             
1 56717U 23068H   25265.10993569  .00000058  00000+0  10895-3 0  9995
2 56717  87.9187 297.4751 0002161  63.5199 296.6156 13.21824875115672
ONEWEB-0682             
1 56718U 23068J   25265.16010815 -.00000057  00000+0 -18443-3 0  9994
2 56718  87.9010 312.6879 0002413  97.1817 262.9588 13.15549059114214
ONEWEB-0683             
1 56719U 23068K   25265.18149638  .00000036  00000+0  60601-4 0  9992
2 56719  87.9014 312.6625 0002143  98.9925 261.1448 13.15549673114181
ONEWEB-0684             
1 56720U 23068L   25265.18940655  .00000119  00000+0  28219-3 0  9992
2 56720  87.9002 312.6589 0001180 147.2605 212.8598 13.15550220114013
ONEWEB-0686             
1 56721U 23068M   25265.27837983  .00000090  00000+0  20220-3 0  9994
2 56721  87.8961 282.1912 0001983  99.9585 260.1770 13.16593147116464
