[{"OBJECT_NAME":"ONEWEB-0637","OBJECT_ID":"2023-043AJ","EPOCH":"2025-09-22T04:19:05.925216","MEAN_MOTION":13.1554889,"ECCENTRICITY":0.00021917,"INCLINATION":87.9011,"RA_OF_ASC_NODE":312.7057,"ARG_OF_PERICENTER":91.8879,"MEAN_ANOMALY":268.2502,"EPHEMERIS_TYPE":0,"CLASSIFICATION_TYPE":"U","NORAD_CAT_ID":56078,"ELEMENT_SET_NO":999,"REV_AT_EPOCH":12119,"BSTAR":5.355746e-6,"MEAN_MOTION_DOT":1.5e-7,"MEAN_MOTION_DDOT":0},{"OBJECT_NAME":"ONEWEB-0647","OBJECT_ID":"2023-043AK","EPOCH":"2025-09-22T04:12:13.150944","MEAN_MOTION":13.15549667,"ECCENTRICITY":0.00017041,"INCLINATION":87.9014,"RA_OF_ASC_NODE":312.7197,"ARG_OF_PERICENTER":93.1748,"MEAN_ANOMALY":266.9577,"EPHEMERIS_TYPE":0,"CLASSIFICATION_TYPE":"U","NORAD_CAT_ID":56079,"ELEMENT_SET_NO":999,"REV_AT_EPOCH":12118,"BSTAR":-0.00014300563,"MEAN_MOTION_DOT":-4.1e-7,"MEAN_MOTION_DDOT":0},{"OBJECT_NAME":"ONEWEB-0651","OBJECT_ID":"2023-043AL","EPOCH":"2025-09-22T04:05:24.180864","MEAN_MOTION":13.15548431,"ECCENTRICITY":0.0002003,"INCLINATION":87.9015,"RA_OF_ASC_NODE":312.7124,"ARG_OF_PERICENTER":89.0583,"MEAN_ANOMALY":271.0777,"EPHEMERIS_TYPE":0,"CLASSIFICATION_TYPE":"U","NORAD_CAT_ID":56080,"ELEMENT_SET_NO":999,"REV_AT_EPOCH":12238,"BSTAR":-0.00021665265,"MEAN_MOTION_DOT":-6.9e-7,"MEAN_MOTION_DDOT":0},{"OBJECT_NAME":"ONEWEB-0718","OBJECT_ID":"2023-043AM","EPOCH":"2025-09-22T03:58:32.613600","MEAN_MOTION":13.15549996,"ECCENTRICITY":0.00023053,"INCLINATION":87.9016,"RA_OF_ASC_NODE":312.6942,"ARG_OF_PERICENTER":108.2233,"MEAN_ANOMALY":251.9149,"EPHEMERIS_TYPE":0,"CLASSIFICATION_TYPE":"U","NORAD_CAT_ID":56081,"ELEMENT_SET_NO":999,"REV_AT_EPOCH":12119,"BSTAR":-0.0002905546,"MEAN_MOTION_DOT":-9.7e-7,"MEAN_MOTION_DDOT":0},{"OBJECT_NAME":"ONEWEB-0561","OBJECT_ID":"2023-068A","EPOCH":"2025-09-22T05:54:15.045408","MEAN_MOTION":13.20771682,"ECCENTRICITY":0.00016481,"INCLINATION":87.9255,"RA_OF_ASC_NODE":327.8794,"ARG_OF_PERICENTER":82.9043,"MEAN_ANOMALY":277.2278,"EPHEMERIS_TYPE":0,"CLASSIFICATION_TYPE":"U","NORAD_CAT_ID":56710,"ELEMENT_SET_NO":999,"REV_AT_EPOCH":11413,"BSTAR":0.00013076214,"MEAN_MOTION_DOT":6.6e-7,"MEAN_MOTION_DDOT":0},{"OBJECT_NAME":"ONEWEB-0668","OBJECT_ID":"2023-068B","EPOCH":"2025-09-22T02:40:22.747296","MEAN_MOTION":13.16593017,"ECCENTRICITY":0.00023404,"INCLINATION":87.8978,"RA_OF_ASC_NODE":282.1846,"ARG_OF_PERICENTER":98.9107,"MEAN_ANOMALY":261.2289,"EPHEMERIS_TYPE":0,"CLASSIFICATION_TYPE":"U","NORAD_CAT_ID":56711,"ELEMENT_SET_NO":999,"REV_AT_EPOCH":11650,"BSTAR":0.00042471401,"MEAN_MOTION_DOT":1.75e-6,"MEAN_MOTION_DDOT":0},{"OBJECT_NAME":"ONEWEB-0676","OBJECT_ID":"2023-068C","EPOCH":"2025-09-22T05:50:42.741600","MEAN_MOTION":13.16594757,"ECCENTRICITY":0.00018024,"INCLINATION":87.8971,"RA_OF_ASC_NODE":282.1765,"ARG_OF_PERICENTER":81.6701,"MEAN_ANOMALY":278.4634,"EPHEMERIS_TYPE":0,"CLASSIFICATION_TYPE":"U","NORAD_CAT_ID":56712,"ELEMENT_SET_NO":999,"REV_AT_EPOCH":11644,"BSTAR":5.0964726e-5,"MEAN_MOTION_DOT":3.2e-7,"MEAN_MOTION_DDOT":0},{"OBJECT_NAME":"ONEWEB-0677","OBJECT_ID":"2023-068D","EPOCH":"2025-09-22T05:38:20.067072","MEAN_MOTION":13.20772063,"ECCENTRICITY":0.00020128,"INCLINATION":87.9259,"RA_OF_ASC_NODE":327.8584,"ARG_OF_PERICENTER":90.8203,"MEAN_ANOMALY":269.3161,"EPHEMERIS_TYPE":0,"CLASSIFICATION_TYPE":"U","NORAD_CAT_ID":56713,"ELEMENT_SET_NO":999,"REV_AT_EPOCH":11443,"BSTAR":-4.248932e-6,"MEAN_MOTION_DOT":1.1e-7,"MEAN_MOTION_DDOT":0},{"OBJECT_NAME":"ONEWEB-0678","OBJECT_ID":"2023-068E","EPOCH":"2025-09-22T05:02:25.317600","MEAN_MOTION":13.15549837,"ECCENTRICITY":0.00014886,"INCLINATION":87.9018,"RA_OF_ASC_NODE":312.6585,"ARG_OF_PERICENTER":96.7951,"MEAN_ANOMALY":263.3349,"EPHEMERIS_TYPE":0,"CLASSIFICATION_TYPE":"U","NORAD_CAT_ID":56714,"ELEMENT_SET_NO":999,"REV_AT_EPOCH":11405,"BSTAR":0.00026040289,"MEAN_MOTION_DOT":1.11e-6,"MEAN_MOTION_DDOT":0},{"OBJECT_NAME":"ONEWEB-0679","OBJECT_ID":"2023-068F","EPOCH":"2025-09-22T06:55:43.080384","MEAN_MOTION":13.16595222,"ECCENTRICITY":0.00023538,"INCLINATION":87.8974,"RA_OF_ASC_NODE":282.1599,"ARG_OF_PERICENTER":85.1778,"MEAN_ANOMALY":274.9622,"EPHEMERIS_TYPE":0,"CLASSIFICATION_TYPE":"U","NORAD_CAT_ID":56715,"ELEMENT_SET_NO":999,"REV_AT_EPOCH":11647,"BSTAR":7.4059359e-5,"MEAN_MOTION_DOT":4.1e-7,"MEAN_MOTION_DDOT":0},{"OBJECT_NAME":"ONEWEB-0680","OBJECT_ID":"2023-068G","EPOCH":"2025-09-22T03:10:05.546496","MEAN_MOTION":13.21825898,"ECCENTRICITY":0.00025082,"INCLINATION":87.919,"RA_OF_ASC_NODE":297.4534,"ARG_OF_PERICENTER":97.6097,"MEAN_ANOMALY":262.5322,"EPHEMERIS_TYPE":0,"CLASSIFICATION_TYPE":"U","NORAD_CAT_ID":56716,"ELEMENT_SET_NO":999,"REV_AT_EPOCH":11568,"BSTAR":9.1127607e-5,"MEAN_MOTION_DOT":5.1e-7,"MEAN_MOTION_DDOT":0},{"OBJECT_NAME":"ONEWEB-0681","OBJECT_ID":"2023-068H","EPOCH":"2025-09-22T02:38:18.443616","MEAN_MOTION":13.21824875,"ECCENTRICITY":0.00021619,"INCLINATION":87.9187,"RA_OF_ASC_NODE":297.4751,"ARG_OF_PERICENTER":63.5199,"MEAN_ANOMALY":296.6156,"EPHEMERIS_TYPE":0,"CLASSIFICATION_TYPE":"U","NORAD_CAT_ID":56717,"ELEMENT_SET_NO":999,"REV_AT_EPOCH":11567,"BSTAR":0.00010895468,"MEAN_MOTION_DOT":5.8e-7,"MEAN_MOTION_DDOT":0},{"OBJECT_NAME":"ONEWEB-0682","OBJECT_ID":"2023-068J","EPOCH":"2025-09-22T03:50:33.344160","MEAN_MOTION":13.15549059,"ECCENTRICITY":0.00024133,"INCLINATION":87.901,"RA_OF_ASC_NODE":312.6879,"ARG_OF_PERICENTER":97.1817,"MEAN_ANOMALY":262.9588,"EPHEMERIS_TYPE":0,"CLASSIFICATION_TYPE":"U","NORAD_CAT_ID":56718,"ELEMENT_SET_NO":999,"REV_AT_EPOCH":11421,"BSTAR":-0.00018442807,"MEAN_MOTION_DOT":-5.7e-7,"MEAN_MOTION_DDOT":0},{"OBJECT_NAME":"ONEWEB-0683","OBJECT_ID":"2023-068K","EPOCH":"2025-09-22T04:21:21.287232","MEAN_MOTION":13.15549673,"ECCENTRICITY":0.00021434,"INCLINATION":87.9014,"RA_OF_ASC_NODE":312.6625,"ARG_OF_PERICENTER":98.9925,"MEAN_ANOMALY":261.1448,"EPHEMERIS_TYPE":0,"CLASSIFICATION_TYPE":"U","NORAD_CAT_ID":56719,"ELEMENT_SET_NO":999,"REV_AT_EPOCH":11418,"BSTAR":6.0601273e-5,"MEAN_MOTION_DOT":3.6e-7,"MEAN_MOTION_DDOT":0},{"OBJECT_NAME":"ONEWEB-0684","OBJECT_ID":"2023-068L","EPOCH":"2025-09-22T04:32:44.725920","MEAN_MOTION":13.1555022,"ECCENTRICITY":0.00011807,"INCLINATION":87.9002,"RA_OF_ASC_NODE":312.6589,"ARG_OF_PERICENTER":147.2605,"MEAN_ANOMALY":212.8598,"EPHEMERIS_TYPE":0,"CLASSIFICATION_TYPE":"U","NORAD_CAT_ID":56720,"ELEMENT_SET_NO":999,"REV_AT_EPOCH":11401,"BSTAR":0.00028218655,"MEAN_MOTION_DOT":1.19e-6,"MEAN_MOTION_DDOT":0},{"OBJECT_NAME":"ONEWEB-0686","OBJECT_ID":"2023-068M","EPOCH":"2025-09-22T06:40:52.017312","MEAN_MOTION":13.16593147,"ECCENTRICITY":0.00019839,"INCLINATION":87.8961,"RA_OF_ASC_NODE":282.1912,"ARG_OF_PERICENTER":99.9585,"MEAN_ANOMALY":260.177,"EPHEMERIS_TYPE":0,"CLASSIFICATION_TYPE":"U","NORAD_CAT_ID":56721,"ELEMENT_SET_NO":999,"REV_AT_EPOCH":11646,"BSTAR":0.00020219871,"MEAN_MOTION_DOT":9.0e-7,"MEAN_MOTION_DDOT":0}]
